[{"OBJECT_NAME":"MESON-1","OBJECT_ID":"2024-043AK","EPOCH":"2026-03-09T21:36:16.481664","MEAN_MOTION":15.29893494,"ECCENTRICITY":0.00095452,"INCLINATION":97.5469,"RA_OF_ASC_NODE":205.2839,"ARG_OF_PERICENTER":227.1432,"MEAN_ANOMALY":132.9007,"EPHEMERIS_TYPE":0,"CLASSIFICATION_TYPE":"U","NORAD_CAT_ID":59131,"ELEMENT_SET_NO":999,"REV_AT_EPOCH":11189,"BSTAR":0.0002974823,"MEAN_MOTION_DOT":8.544e-5,"MEAN_MOTION_DDOT":0},{"OBJECT_NAME":"STARLINK-35615","OBJECT_ID":"2025-245Z","EPOCH":"2026-03-09T21:45:45.394560","MEAN_MOTION":15.3020912,"ECCENTRICITY":7.849e-5,"INCLINATION":53.1574,"RA_OF_ASC_NODE":282.6068,"ARG_OF_PERICENTER":87.6641,"MEAN_ANOMALY":272.4449,"EPHEMERIS_TYPE":0,"CLASSIFICATION_TYPE":"U","NORAD_CAT_ID":66257,"ELEMENT_SET_NO":999,"REV_AT_EPOCH":2129,"BSTAR":0.00082069669,"MEAN_MOTION_DOT":0.00024033,"MEAN_MOTION_DDOT":0}]
